COSMOS 2419 (714)       
1 28915U 05050A   17144.73768089 -.00000035  00000-0  00000-0 0  9999
2 28915  65.4858  66.6421 0017331 351.4584 100.0421  2.13108731 88834
COSMOS 2425 (716)       
1 29670U 06062A   17144.59155977 -.00000023  00000-0  10000-3 0  9993
2 29670  65.4736 305.6567 0021017 351.4712  40.2349  2.13104983 81038
COSMOS 2426 (717)       
1 29671U 06062B   17144.69091900 -.00000024  00000-0  10000-3 0  9991
2 29671  65.4923 305.7434 0017754 158.0697 168.3627  2.13102953 81033
COSMOS 2424 (715)       
1 29672U 06062C   17144.59785743 -.00000023  00000-0  10000-3 0  9995
2 29672  65.4757 305.6683 0017289 156.7678 273.6244  2.13102288 81037
COSMOS 2433 (720)       
1 32275U 07052A   17144.71010285 -.00000035  00000-0  10000-3 0  9997
2 32275  65.5011  66.4206 0003653 298.5570  16.2151  2.13104660 74545
COSMOS 2432 (719)       
1 32276U 07052B   17144.49360021 -.00000036  00000-0  10000-3 0  9990
2 32276  65.5127  66.4989 0013504 336.2394 125.3699  2.13104143 74547
COSMOS 2434 (721)       
1 32393U 07065A   17144.52528059 -.00000024  00000-0  00000-0 0  9998
2 32393  65.0908 304.8196 0005997 102.6552 320.0340  2.13102936 73258
COSMOS 2436 (723)       
1 32395U 07065C   17144.46045343 -.00000023  00000-0  10000-3 0  9996
2 32395  65.1004 304.8674 0015242   8.2025  53.3220  2.13104315 73187
COSMOS 2443 (725)       
1 33379U 08046B   17144.20574564 -.00000036  00000-0  00000-0 0  9993
2 33379  65.4293  65.8232 0011282 182.3024   6.4765  2.13099459 67403
COSMOS 2456 (730)       
1 36111U 09070A   17144.80615483  .00000097  00000-0  00000-0 0  9996
2 36111  64.1787 184.3767 0005895 300.9875 148.1925  2.13102973 57923
COSMOS 2457 (733)       
1 36112U 09070B   17144.69441090  .00000098  00000-0  00000-0 0  9996
2 36112  64.1611 184.2990 0006303 187.0981 305.0214  2.13101634 57922
COSMOS 2458 (734)       
1 36113U 09070C   17144.65468588  .00000099  00000-0  10000-3 0  9999
2 36113  64.1667 184.3091 0002327 306.6768 202.9315  2.13102132 57922
COSMOS 2459 (731)       
1 36400U 10007A   17144.60269832 -.00000036  00000-0  10000-3 0  9998
2 36400  65.4100  65.5324 0029534 351.7490 102.9024  2.13102328 56278
COSMOS 2461 (735)       
1 36401U 10007B   17144.62884767 -.00000036  00000-0  10000-3 0  9991
2 36401  65.4026  65.5107 0007021  50.2170 335.0932  2.13102360 56271
COSMOS 2460 (732)       
1 36402U 10007C   17144.67116194 -.00000036  00000-0  10000-3 0  9999
2 36402  65.3923  65.4809 0002240 344.8239 114.2762  2.13101801 56278
COSMOS 2465 (737)       
1 37138U 10041B   17144.46060380 -.00000024  00000-0  00000-0 0  9999
2 37138  64.6892 304.8211 0035450 168.9214 248.8682  2.13104240 52345
COSMOS 2464 (736)       
1 37139U 10041C   17144.69581714 -.00000025  00000-0  00000-0 0  9995
2 37139  64.6955 304.8128 0023742  17.2951  43.9645  2.13102640 52343
COSMOS 2471 (701K)      
1 37372U 11009A   17144.71030506 -.00000036  00000-0  00000-0 0  9992
2 37372  65.3916  65.4280 0007667 245.3870  19.3878  2.13107614 48546
COSMOS 2474 (742)       
1 37829U 11055A   17144.59172130  .00000099  00000-0  00000-0 0  9994
2 37829  64.5034 184.9389 0010277 253.1156 251.4557  2.13101992 43919
COSMOS 2476 (744)       
1 37867U 11064A   17144.93754155  .00000096  00000-0  00000-0 0  9994
2 37867  64.4826 185.0020 0019473 246.3640 209.4474  2.13102106 43270
COSMOS 2477 (745)       
1 37868U 11064B   17144.72515855  .00000098  00000-0  00000-0 0  9996
2 37868  64.4920 185.0508 0017324 247.8514 224.1519  2.13101858 43228
COSMOS 2475 (743)       
1 37869U 11064C   17144.66673976  .00000098  00000-0  00000-0 0  9999
2 37869  64.4989 185.0438 0022296 271.3924 112.1730  2.13102032 43234
COSMOS 2485 (747)       
1 39155U 13019A   17144.76781769  .00000098  00000-0  00000-0 0  9992
2 39155  64.6522 185.0284 0019670 241.4886 129.1392  2.13102056 31746
COSMOS 2492 (754)       
1 39620U 14012A   17144.64169350 -.00000037  00000-0  10000-3 0  9994
2 39620  65.2823  65.4229 0016945 332.6027 335.3773  2.13103461 24686
COSMOS 2500 (755)       
1 40001U 14032A   17144.48367236 -.00000037  00000-0  00000-0 0  9992
2 40001  65.2232  65.4278 0004739 226.6370 183.1947  2.13102901 22903
COSMOS 2501 (702K)      
1 40315U 14075A   17144.73270353 -.00000026  00000-0  00000-0 0  9996
2 40315  64.4222 306.1609 0014205 204.0829 203.1575  2.13098583 19313
COSMOS 2514 (751)       
1 41330U 16008A   17144.35523194 -.00000037  00000-0  00000-0 0  9996
2 41330  65.0237  65.5810 0008181 228.5729 262.6574  2.13103488 10063
COSMOS 2516 (753)       
1 41554U 16032A   17144.73116086 -.00000026  00000-0  00000-0 0  9999
2 41554  64.6437 305.9195 0010176 213.9469  98.4031  2.13101573  7670
